NIMIQ 2                 
1 27632U 02062A   26175.30808751 -.00000069  00000+0  00000+0 0  9997
2 27632   9.4628  56.8250 0005757  31.2530 186.1092  1.00271871 44254
ANIK F2                 
1 28378U 04027A   26176.14655491 -.00000043  00000+0  00000+0 0  9994
2 28378   3.3082  79.3436 0004230  12.8204 122.7539  1.00271993 41347
ANIK F1R                
1 28868U 05036A   26176.24547310 -.00000069  00000+0  00000+0 0  9998
2 28868   4.3334  76.4840 0004372  10.5476 167.4249  1.00272001 46533
ANIK F3                 
1 31102U 07009A   26176.28762514  .00000007  00000+0  00000+0 0  9995
2 31102   1.2187  83.7697 0002876  13.2776 161.2350  1.00274553 46642
NIMIQ 4                 
1 33373U 08044A   26176.29484950 -.00000210  00000+0  00000+0 0  9990
2 33373   0.0161 311.7309 0001864 144.2180 201.6244  1.00270156 65060
TELSTAR 11N             
1 34111U 09009A   26176.18083187 -.00000241  00000+0  00000+0 0  9992
2 34111   0.0424  81.7074 0002623  11.5310 207.6337  1.00272497 46328
TERRESTAR-1             
1 35496U 09035A   26175.57620014 -.00000052  00000+0  00000+0 0  9996
2 35496   5.1807  48.7957 0002693  38.5406 281.8043  1.00272330 62200
NIMIQ 5                 
1 35873U 09050A   26176.15947413 -.00000247  00000+0  00000+0 0  9998
2 35873   0.0408 271.5942 0002937 171.9364 174.4852  1.00271531 61426
SKYTERRA 1              
1 37218U 10061A   26176.14846159 -.00000113  00000+0  00000+0 0  9993
2 37218   5.1421  50.8504 0002440  21.2697 153.2975  1.00272923 57274
TELSTAR 14R             
1 37602U 11021A   26176.29857619 -.00000270  00000+0  00000+0 0  9990
2 37602   0.0397  79.8303 0002428 347.6238 250.4819  1.00272066 55911
NIMIQ 6                 
1 38342U 12026A   26176.15045492 -.00000164  00000+0  00000+0 0  9993
2 38342   0.0121  16.6889 0002934  72.8832 146.7779  1.00271846 50490
ANIK G1                 
1 39127U 13014A   26176.24547227 -.00000064  00000+0  00000+0 0  9995
2 39127   0.0264 282.4215 0001892 167.7400 164.2811  1.00272503 48336
TELSTAR 12V             
1 41036U 15068A   26175.45263589 -.00000111  00000+0  00000+0 0  9999
2 41036   0.0126 300.3375 0002387 154.0367 326.1827  1.00273298 38699
VIASAT-2                
1 42740U 17029A   26175.22767060 -.00000258  00000+0  00000+0 0  9991
2 42740   0.0153 301.1892 0000353 112.3888 230.8800  1.00272341 33270
LEO 1 (LEO VANTAGE 1)   
1 43113U 18004C   26175.54424059  .00004100  00000+0  28326-3 0  9997
2 43113  99.2428  94.7932 0351018  56.9768 306.4645 14.67849243438563
TELSTAR 19V             
1 43562U 18059A   26176.29857619 -.00000270  00000+0  00000+0 0  9990
2 43562   0.0060 128.1840 0002965 346.5475 203.1935  1.00271070 29224
TELSTAR 18V             
1 43611U 18069A   26176.26711140 -.00000284  00000+0  00000+0 0  9996
2 43611   0.0113 308.5294 0002106 142.3028  56.7249  1.00270754 28720
AMOS-17                 
1 44479U 19050A   26174.93020750  .00000116  00000+0  00000+0 0  9995
2 44479   0.0161 338.2141 0001929 139.5461 146.1952  1.00271061 25250
